STARLETTE               
1 07646U 75010A   25065.64541760 -.00000133  00000+0  74524-5 0  9991
2 07646  49.8242 150.0629 0205670 318.5019  40.0414 13.82340468529866
LAGEOS 1                
1 08820U 76039A   25064.80024550  .00000004  00000+0  00000+0 0  9996
2 08820 109.8608  18.8895 0044308  42.0884 163.9803  6.38665015883229
AJISAI (EGS)            
1 16908U 86061A   25065.75355649 -.00000092  00000+0  35696-4 0  9991
2 16908  50.0083 144.7385 0011346  71.1544  21.2473 12.44510911422185
COSMOS 1989 (ETALON 1)  
1 19751U 89001C   25065.72208053  .00000020  00000+0  00000+0 0  9996
2 19751  64.6812  88.2138 0023641 216.7857 314.4052  2.13156073281406
COSMOS 2024 (ETALON 2)  
1 20026U 89039C   25065.68166948 -.00000069  00000+0  00000+0 0  9999
2 20026  65.2076 326.5981 0019891 215.9452   1.3243  2.13204358278534
LAGEOS 2                
1 22195U 92070B   25065.44193087 -.00000009  00000+0  00000+0 0  9999
2 22195  52.6419 202.2543 0137131 342.6107  15.5967  6.47293988765136
STELLA                  
1 22824U 93061B   25065.74535178 -.00000019  00000+0  10720-4 0  9999
2 22824  98.8390 121.5863 0006908 148.3107 328.7363 14.27450442638080
LARETS                  
1 27944U 03042F   25065.69907485  .00000196  00000+0  47146-4 0  9992
2 27944  98.3502 214.8020 0013329  58.7181 301.5324 14.63715859144972
LARES                   
1 38077U 12006A   25065.75814052 -.00000046  00000+0 -48318-4 0  9993
2 38077  69.4929  10.6566 0006937 134.7801 225.3791 12.54931644598425
LARES-2                 
1 53105U 22080A   25065.33791626  .00000005  00000+0  00000+0 0  9994
2 53105  70.1378 105.7864 0004866  77.5937 282.5379  6.38965243 61778
